{
  "norad_id": 58009,
  "name": "STARLINK-30486",
  "history": [
    {
      "epoch": "2026-04-13T01:11:24.529344Z",
      "apogee_km": 484.0969525323135,
      "perigee_km": 482.0202058544037,
      "latitude_deg": -3.9995457375215994e-05,
      "longitude_deg": 13.693704903109905,
      "height_km": 482.9663774575254,
      "semi_major_axis_km": 6861.195579193359,
      "eccentricity": 0.00015134,
      "inclination_deg": 43.0,
      "raan_deg": 232.7919,
      "arg_perigee_deg": 262.7508,
      "mean_anomaly_deg": 97.3171,
      "mean_motion_rev_day": 15.27576833
    },
    {
      "epoch": "2026-04-14T14:51:09.968832Z",
      "apogee_km": 484.083699327196,
      "perigee_km": 482.0308300032084,
      "latitude_deg": 6.091808264491929e-06,
      "longitude_deg": 158.34437541841936,
      "height_km": 482.9267479917151,
      "semi_major_axis_km": 6861.194264665201,
      "eccentricity": 0.0001496,
      "inclination_deg": 43.0019,
      "raan_deg": 223.9286,
      "arg_perigee_deg": 264.8291,
      "mean_anomaly_deg": 95.239,
      "mean_motion_rev_day": 15.27577272
    },
    {
      "epoch": "2026-04-15T14:23:30.922080Z",
      "apogee_km": 484.0117403656668,
      "perigee_km": 482.13039711321926,
      "latitude_deg": 3.451821523405646e-05,
      "longitude_deg": 158.75228361808604,
      "height_km": 482.9527276705239,
      "semi_major_axis_km": 6861.208068739443,
      "eccentricity": 0.0001371,
      "inclination_deg": 43.0005,
      "raan_deg": 218.3905,
      "arg_perigee_deg": 263.5942,
      "mean_anomaly_deg": 96.4754,
      "mean_motion_rev_day": 15.27572662
    },
    {
      "epoch": "2026-04-16T13:55:51.845088Z",
      "apogee_km": 484.2320794411944,
      "perigee_km": 481.90338655481446,
      "latitude_deg": -1.1196448197447266e-05,
      "longitude_deg": 159.15823922056674,
      "height_km": 482.85050943830015,
      "semi_major_axis_km": 6861.204732998004,
      "eccentricity": 0.0001697,
      "inclination_deg": 43.0018,
      "raan_deg": 212.8504,
      "arg_perigee_deg": 269.7228,
      "mean_anomaly_deg": 90.3429,
      "mean_motion_rev_day": 15.27573776
    },
    {
      "epoch": "2026-04-17T15:02:21.868800Z",
      "apogee_km": 484.0211531798486,
      "perigee_km": 482.1153848043341,
      "latitude_deg": -3.6824515142853205e-05,
      "longitude_deg": 135.5937517289096,
      "height_km": 482.87303786910013,
      "semi_major_axis_km": 6861.205268992091,
      "eccentricity": 0.00013888,
      "inclination_deg": 43.0009,
      "raan_deg": 206.9422,
      "arg_perigee_deg": 268.3176,
      "mean_anomaly_deg": 91.7516,
      "mean_motion_rev_day": 15.27573597
    },
    {
      "epoch": "2026-04-18T13:00:33.005952Z",
      "apogee_km": 484.008211968825,
      "perigee_km": 482.1817520152181,
      "latitude_deg": 5.2130282230829165e-05,
      "longitude_deg": 159.97537622205724,
      "height_km": 482.8302559471016,
      "semi_major_axis_km": 6861.231981992021,
      "eccentricity": 0.0001331,
      "inclination_deg": 43.0014,
      "raan_deg": 201.7724,
      "arg_perigee_deg": 272.6063,
      "mean_anomaly_deg": 87.4637,
      "mean_motion_rev_day": 15.27564676
    },
    {
      "epoch": "2026-04-19T07:50:25.249632Z",
      "apogee_km": 483.80681517711673,
      "perigee_km": 482.2741653493413,
      "latitude_deg": -9.526224187275908e-06,
      "longitude_deg": -127.69794097558939,
      "height_km": 482.49843137861956,
      "semi_major_axis_km": 6861.177490263229,
      "eccentricity": 0.00011169,
      "inclination_deg": 43.0007,
      "raan_deg": 197.3402,
      "arg_perigee_deg": 294.563,
      "mean_anomaly_deg": 65.5105,
      "mean_motion_rev_day": 15.27582874
    },
    {
      "epoch": "2026-04-20T12:05:20.322816Z",
      "apogee_km": 484.36532462860396,
      "perigee_km": 482.4052621702722,
      "latitude_deg": -1.134139271452653e-05,
      "longitude_deg": 160.76425345793808,
      "height_km": 482.8531065720526,
      "semi_major_axis_km": 6861.522293399438,
      "eccentricity": 0.00014283,
      "inclination_deg": 43.0,
      "raan_deg": 190.692,
      "arg_perigee_deg": 288.373,
      "mean_anomaly_deg": 71.6966,
      "mean_motion_rev_day": 15.2746773
    },
    {
      "epoch": "2026-04-21T16:20:03.492672Z",
      "apogee_km": 483.83767093832375,
      "perigee_km": 482.2733190494664,
      "latitude_deg": -2.1351600680017993e-05,
      "longitude_deg": 89.27857122764345,
      "height_km": 482.7208761460149,
      "semi_major_axis_km": 6861.192494993895,
      "eccentricity": 0.000114,
      "inclination_deg": 43.0026,
      "raan_deg": 184.0462,
      "arg_perigee_deg": 278.188,
      "mean_anomaly_deg": 81.8842,
      "mean_motion_rev_day": 15.27577863
    },
    {
      "epoch": "2026-04-22T15:52:25.035168Z",
      "apogee_km": 483.52918642576515,
      "perigee_km": 482.5837139683281,
      "latitude_deg": -2.3099562348679413e-05,
      "longitude_deg": 89.68318110555133,
      "height_km": 482.92922557733095,
      "semi_major_axis_km": 6861.193450197046,
      "eccentricity": 6.89e-05,
      "inclination_deg": 43.0005,
      "raan_deg": 178.5073,
      "arg_perigee_deg": 258.2009,
      "mean_anomaly_deg": 101.8765,
      "mean_motion_rev_day": 15.27577544
    },
    {
      "epoch": "2026-04-23T12:16:29.055360Z",
      "apogee_km": 483.62996802644193,
      "perigee_km": 483.0286291200355,
      "latitude_deg": 2.5453142813399116e-05,
      "longitude_deg": 138.02943625998856,
      "height_km": 483.3952426068539,
      "semi_major_axis_km": 6861.466298573238,
      "eccentricity": 4.382e-05,
      "inclination_deg": 43.0003,
      "raan_deg": 173.7081,
      "arg_perigee_deg": 195.0012,
      "mean_anomaly_deg": 165.0827,
      "mean_motion_rev_day": 15.27486428
    },
    {
      "epoch": "2026-04-24T11:48:47.172960Z",
      "apogee_km": 484.2035198359499,
      "perigee_km": 481.90502076039957,
      "latitude_deg": -6.0647397262938315e-05,
      "longitude_deg": 138.44786679036108,
      "height_km": 483.0033667262754,
      "semi_major_axis_km": 6861.1912702981745,
      "eccentricity": 0.0001675,
      "inclination_deg": 43.0023,
      "raan_deg": 168.1688,
      "arg_perigee_deg": 261.3952,
      "mean_anomaly_deg": 98.6709,
      "mean_motion_rev_day": 15.27578272
    },
    {
      "epoch": "2026-04-25T11:21:10.097856Z",
      "apogee_km": 484.0839741938935,
      "perigee_km": 482.11479935088937,
      "latitude_deg": 1.7077303832134022e-05,
      "longitude_deg": 138.8469876045741,
      "height_km": 483.0486574035165,
      "semi_major_axis_km": 6861.236386772391,
      "eccentricity": 0.0001435,
      "inclination_deg": 43.0017,
      "raan_deg": 162.6301,
      "arg_perigee_deg": 259.916,
      "mean_anomaly_deg": 100.153,
      "mean_motion_rev_day": 15.27563205
    },
    {
      "epoch": "2026-04-26T12:27:38.025504Z",
      "apogee_km": 484.3696635410979,
      "perigee_km": 481.63975247831513,
      "latitude_deg": -4.1806137579654144e-05,
      "longitude_deg": 115.29112090054822,
      "height_km": 483.03396103229545,
      "semi_major_axis_km": 6861.141708009706,
      "eccentricity": 0.00019894,
      "inclination_deg": 43.0005,
      "raan_deg": 156.7218,
      "arg_perigee_deg": 259.3571,
      "mean_anomaly_deg": 100.7056,
      "mean_motion_rev_day": 15.27594824
    },
    {
      "epoch": "2026-04-27T08:51:41.737248Z",
      "apogee_km": 483.87942842044595,
      "perigee_km": 482.30683447431784,
      "latitude_deg": 1.926451340072143e-05,
      "longitude_deg": 163.63648042488805,
      "height_km": 483.3418543729243,
      "semi_major_axis_km": 6861.230131447382,
      "eccentricity": 0.0001146,
      "inclination_deg": 43.0004,
      "raan_deg": 151.9204,
      "arg_perigee_deg": 233.0679,
      "mean_anomaly_deg": 127.0068,
      "mean_motion_rev_day": 15.27565294
    },
    {
      "epoch": "2026-04-28T08:24:03.011040Z",
      "apogee_km": 484.00663888714007,
      "perigee_km": 482.17057491473315,
      "latitude_deg": 3.699975751139542e-05,
      "longitude_deg": 164.04043696064588,
      "height_km": 483.3946483509317,
      "semi_major_axis_km": 6861.225606900936,
      "eccentricity": 0.0001338,
      "inclination_deg": 42.9979,
      "raan_deg": 146.3797,
      "arg_perigee_deg": 234.7443,
      "mean_anomaly_deg": 125.3284,
      "mean_motion_rev_day": 15.27566805
    },
    {
      "epoch": "2026-04-29T12:38:51.273312Z",
      "apogee_km": 484.24343699742985,
      "perigee_km": 481.76930869718035,
      "latitude_deg": 1.3594677000518543e-05,
      "longitude_deg": 92.53616742033628,
      "height_km": 482.94449931688604,
      "semi_major_axis_km": 6861.143372847305,
      "eccentricity": 0.0001803,
      "inclination_deg": 43.0014,
      "raan_deg": 139.7366,
      "arg_perigee_deg": 262.5227,
      "mean_anomaly_deg": 97.542,
      "mean_motion_rev_day": 15.27594268
    },
    {
      "epoch": "2026-04-30T07:28:43.087584Z",
      "apogee_km": 484.179029136134,
      "perigee_km": 481.80494128467126,
      "latitude_deg": -2.8461381255241245e-05,
      "longitude_deg": 164.86536561312508,
      "height_km": 482.79077195215586,
      "semi_major_axis_km": 6861.128985210403,
      "eccentricity": 0.00017301,
      "inclination_deg": 43.0019,
      "raan_deg": 135.3051,
      "arg_perigee_deg": 268.9569,
      "mean_anomaly_deg": 91.1084,
      "mean_motion_rev_day": 15.27599073
    },
    {
      "epoch": "2026-05-02T08:07:34.221792Z",
      "apogee_km": 484.1950256952159,
      "perigee_km": 481.9555260083771,
      "latitude_deg": 3.7408459659461154e-05,
      "longitude_deg": 141.7072908679514,
      "height_km": 483.1510269507729,
      "semi_major_axis_km": 6861.212275851796,
      "eccentricity": 0.0001632,
      "inclination_deg": 43.0028,
      "raan_deg": 123.8579,
      "arg_perigee_deg": 254.5318,
      "mean_anomaly_deg": 105.5354,
      "mean_motion_rev_day": 15.27571257
    }
  ]
}